{
  "type": "FeatureCollection",
  "features": [
    {
      "type": "Feature",
      "properties": {
        "norad_id": 30360,
        "name": "FENGYUN 1C DEB",
        "group": "fengyun-1c-debris",
        "lat": 63.426120972915776,
        "lon": 46.11969135819212,
        "alt_km": 785.8211394930768,
        "timestamp": "2025-12-20T11:30:28.652975+00:00",
        "meta_object_name": "FENGYUN 1C DEB",
        "meta_object_id": "1999-025ABX",
        "meta_epoch": "2025-12-18T03:54:38.074752",
        "meta_mean_motion": 14.26541729,
        "meta_eccentricity": 0.00311216,
        "meta_inclination": 98.7657,
        "meta_ra_of_asc_node": 61.7678,
        "meta_arg_of_pericenter": 131.5893,
        "meta_mean_anomaly": 283.4578,
        "meta_ephemeris_type": 0,
        "meta_classification_type": "U",
        "meta_norad_cat_id": 30360,
        "meta_element_set_no": 999,
        "meta_rev_at_epoch": 97502,
        "meta_bstar": 0.0012393293,
        "meta_mean_motion_dot": 2.96e-05,
        "meta_mean_motion_ddot": 0,
        "tle_line1": "1 30360U 99025ABX 25352.16294068  .00002960  00000+0  12393-2 0  9996",
        "tle_line2": "2 30360  98.7657  61.7678 0031121 131.5893 283.4578 14.26541729975020"
      },
      "geometry": {
        "type": "Point",
        "coordinates": [
          46.11969135819212,
          63.426120972915776
        ]
      }
    },
    {
      "type": "Feature",
      "properties": {
        "norad_id": 30361,
        "name": "FENGYUN 1C DEB",
        "group": "fengyun-1c-debris",
        "lat": 45.21138618058528,
        "lon": -141.03346858837656,
        "alt_km": 830.541297913328,
        "timestamp": "2025-12-20T11:30:28.652985+00:00",
        "meta_object_name": "FENGYUN 1C DEB",
        "meta_object_id": "1999-025ABY",
        "meta_epoch": "2025-12-19T21:24:24.562080",
        "meta_mean_motion": 14.25381517,
        "meta_eccentricity": 0.0064892,
        "meta_inclination": 98.5686,
        "meta_ra_of_asc_node": 29.6562,
        "meta_arg_of_pericenter": 9.6979,
        "meta_mean_anomaly": 350.5437,
        "meta_ephemeris_type": 0,
        "meta_classification_type": "U",
        "meta_norad_cat_id": 30361,
        "meta_element_set_no": 999,
        "meta_rev_at_epoch": 97718,
        "meta_bstar": 0.00062819,
        "meta_mean_motion_dot": 1.471e-05,
        "meta_mean_motion_ddot": 0,
        "tle_line1": "1 30361U 99025ABY 25353.89195095  .00001471  00000+0  62819-3 0  9993",
        "tle_line2": "2 30361  98.5686  29.6562 0064892   9.6979 350.5437 14.25381517977182"
      },
      "geometry": {
        "type": "Point",
        "coordinates": [
          -141.03346858837656,
          45.21138618058528
        ]
      }
    },
    {
      "type": "Feature",
      "properties": {
        "norad_id": 30362,
        "name": "FENGYUN 1C DEB",
        "group": "fengyun-1c-debris",
        "lat": 55.34000970828365,
        "lon": 110.68232009317019,
        "alt_km": 912.8914054265806,
        "timestamp": "2025-12-20T11:30:28.652995+00:00",
        "meta_object_name": "FENGYUN 1C DEB",
        "meta_object_id": "1999-025ABZ",
        "meta_epoch": "2025-12-18T18:06:16.659936",
        "meta_mean_motion": 14.11880017,
        "meta_eccentricity": 0.0095419,
        "meta_inclination": 99.0508,
        "meta_ra_of_asc_node": 275.6131,
        "meta_arg_of_pericenter": 327.0643,
        "meta_mean_anomaly": 32.4606,
        "meta_ephemeris_type": 0,
        "meta_classification_type": "U",
        "meta_norad_cat_id": 30362,
        "meta_element_set_no": 999,
        "meta_rev_at_epoch": 96253,
        "meta_bstar": 0.0018026523,
        "meta_mean_motion_dot": 3.392e-05,
        "meta_mean_motion_ddot": 0,
        "tle_line1": "1 30362U 99025ABZ 25352.75435949  .00003392  00000+0  18027-2 0  9998",
        "tle_line2": "2 30362  99.0508 275.6131 0095419 327.0643  32.4606 14.11880017962532"
      },
      "geometry": {
        "type": "Point",
        "coordinates": [
          110.68232009317019,
          55.34000970828365
        ]
      }
    },
    {
      "type": "Feature",
      "properties": {
        "norad_id": 30363,
        "name": "FENGYUN 1C DEB",
        "group": "fengyun-1c-debris",
        "lat": 22.15031845451482,
        "lon": -110.55302425384585,
        "alt_km": 879.2116957088056,
        "timestamp": "2025-12-20T11:30:28.653006+00:00",
        "meta_object_name": "FENGYUN 1C DEB",
        "meta_object_id": "1999-025ACA",
        "meta_epoch": "2025-12-19T11:02:40.850592",
        "meta_mean_motion": 14.16911306,
        "meta_eccentricity": 0.0078762,
        "meta_inclination": 99.0316,
        "meta_ra_of_asc_node": 64.7,
        "meta_arg_of_pericenter": 19.6957,
        "meta_mean_anomaly": 340.723,
        "meta_ephemeris_type": 0,
        "meta_classification_type": "U",
        "meta_norad_cat_id": 30363,
        "meta_element_set_no": 999,
        "meta_rev_at_epoch": 96919,
        "meta_bstar": 0.0010021,
        "meta_mean_motion_dot": 2.027e-05,
        "meta_mean_motion_ddot": 0,
        "tle_line1": "1 30363U 99025ACA 25353.46019503  .00002027  00000+0  10021-2 0  9992",
        "tle_line2": "2 30363  99.0316  64.7000 0078762  19.6957 340.7230 14.16911306969194"
      },
      "geometry": {
        "type": "Point",
        "coordinates": [
          -110.55302425384585,
          22.15031845451482
        ]
      }
    },
    {
      "type": "Feature",
      "properties": {
        "norad_id": 30364,
        "name": "FENGYUN 1C DEB",
        "group": "fengyun-1c-debris",
        "lat": -72.81986898612895,
        "lon": -62.252013350148246,
        "alt_km": 608.2932336165413,
        "timestamp": "2025-12-20T11:30:28.653016+00:00",
        "meta_object_name": "FENGYUN 1C DEB",
        "meta_object_id": "1999-025ACB",
        "meta_epoch": "2025-12-18T17:36:52.143840",
        "meta_mean_motion": 14.17227942,
        "meta_eccentricity": 0.03314536,
        "meta_inclination": 98.1364,
        "meta_ra_of_asc_node": 268.5835,
        "meta_arg_of_pericenter": 302.9253,
        "meta_mean_anomaly": 82.2199,
        "meta_ephemeris_type": 0,
        "meta_classification_type": "U",
        "meta_norad_cat_id": 30364,
        "meta_element_set_no": 999,
        "meta_rev_at_epoch": 95726,
        "meta_bstar": 0.0022738506,
        "meta_mean_motion_dot": 7.85e-05,
        "meta_mean_motion_ddot": 0,
        "tle_line1": "1 30364U 99025ACB 25352.73393685  .00007850  00000+0  22739-2 0  9996",
        "tle_line2": "2 30364  98.1364 268.5835 0331453 302.9253  82.2199 14.17227942957268"
      },
      "geometry": {
        "type": "Point",
        "coordinates": [
          -62.252013350148246,
          -72.81986898612895
        ]
      }
    },
    {
      "type": "Feature",
      "properties": {
        "norad_id": 30365,
        "name": "FENGYUN 1C DEB",
        "group": "fengyun-1c-debris",
        "lat": 1.6105465290824523,
        "lon": 168.89702193191167,
        "alt_km": 826.5981237567739,
        "timestamp": "2025-12-20T11:30:28.653026+00:00",
        "meta_object_name": "FENGYUN 1C DEB",
        "meta_object_id": "1999-025ACC",
        "meta_epoch": "2025-12-19T22:58:58.710144",
        "meta_mean_motion": 14.19236554,
        "meta_eccentricity": 0.0168065,
        "meta_inclination": 98.619,
        "meta_ra_of_asc_node": 348.1448,
        "meta_arg_of_pericenter": 90.7082,
        "meta_mean_anomaly": 300.7389,
        "meta_ephemeris_type": 0,
        "meta_classification_type": "U",
        "meta_norad_cat_id": 30365,
        "meta_element_set_no": 999,
        "meta_rev_at_epoch": 97715,
        "meta_bstar": 0.00015678,
        "meta_mean_motion_dot": 3.36e-06,
        "meta_mean_motion_ddot": 0,
        "tle_line1": "1 30365U 99025ACC 25353.95762396  .00000336  00000+0  15678-3 0  9998",
        "tle_line2": "2 30365  98.6190 348.1448 0168065  90.7082 300.7389 14.19236554977155"
      },
      "geometry": {
        "type": "Point",
        "coordinates": [
          168.89702193191167,
          1.6105465290824523
        ]
      }
    },
    {
      "type": "Feature",
      "properties": {
        "norad_id": 30366,
        "name": "FENGYUN 1C DEB",
        "group": "fengyun-1c-debris",
        "lat": -57.00776955146406,
        "lon": -73.78758920588963,
        "alt_km": 798.7837469793822,
        "timestamp": "2025-12-20T11:30:28.653036+00:00",
        "meta_object_name": "FENGYUN 1C DEB",
        "meta_object_id": "1999-025ACD",
        "meta_epoch": "2025-12-19T13:09:50.436288",
        "meta_mean_motion": 14.33505103,
        "meta_eccentricity": 0.0062217,
        "meta_inclination": 98.924,
        "meta_ra_of_asc_node": 271.2468,
        "meta_arg_of_pericenter": 199.1011,
        "meta_mean_anomaly": 340.3689,
        "meta_ephemeris_type": 0,
        "meta_classification_type": "U",
        "meta_norad_cat_id": 30366,
        "meta_element_set_no": 999,
        "meta_rev_at_epoch": 98420,
        "meta_bstar": 0.00033077,
        "meta_mean_motion_dot": 8.87e-06,
        "meta_mean_motion_ddot": 0,
        "tle_line1": "1 30366U 99025ACD 25353.54850042  .00000887  00000+0  33077-3 0  9994",
        "tle_line2": "2 30366  98.9240 271.2468 0062217 199.1011 340.3689 14.33505103984203"
      },
      "geometry": {
        "type": "Point",
        "coordinates": [
          -73.78758920588963,
          -57.00776955146406
        ]
      }
    }
  ]
}